STARLINK-36806          
1 67965U 26038E   26071.25001157 -.02390941  00000+0 -15253-1 0  9995
2 67965  97.2764  81.6851 0001468 109.7145 127.6122 15.79612561  3619
STARLINK-36820          
1 67966U 26038F   26071.25001157 -.02365417  00000+0 -14938-1 0  9995
2 67966  97.2765  81.6875 0001928 108.3339 134.3767 15.79789922  3614
STARLINK-36819          
1 67967U 26038G   26071.25001157 -.02362133  00000+0 -14858-1 0  9999
2 67967  97.2761  81.6897 0001615 110.4771 137.9427 15.79876073  3618
STARLINK-36812          
1 67968U 26038H   26071.25001157 -.02345864  00000+0 -14544-1 0  9994
2 67968  97.2752  81.6905 0001587 120.0883 133.3084 15.80166032  3616
STARLINK-36709          
1 67969U 26038J   26071.25001157 -.02393790  00000+0 -14480-1 0  9995
2 67969  97.2750  81.6957 0001706 107.2657 157.9898 15.80768342  3618
STARLINK-36319          
1 67970U 26038K   26071.25001157 -.02360168  00000+0 -14272-1 0  9999
2 67970  97.2746  81.6928 0001534 101.0909 158.2516 15.80727964  3586
STARLINK-36710          
1 67971U 26038L   26071.25001157 -.02099711  00000+0 -12475-1 0  9996
2 67971  97.2754  81.6984 0001407 105.1570 167.3140 15.81272841  3614
STARLINK-36894          
1 67972U 26038M   26071.25001157 -.02099400  00000+0 -12476-1 0  9993
2 67972  97.2732  81.7004 0000835  96.4363 182.0051 15.81276592  3613
STARLINK-36900          
1 67973U 26038N   26071.25001157 -.02090540  00000+0 -12424-1 0  9993
2 67973  97.2729  81.7052 0001099  80.7737 209.7334 15.81255196  3615
STARLINK-36901          
1 67974U 26038P   26071.25001157 -.02021441  00000+0 -11926-1 0  9994
2 67974  97.2729  81.7025 0001468 125.5553 158.5819 15.81286510  3613
STARLINK-36883          
1 67975U 26038Q   26071.25001157 -.00546606  00000+0 -30004-2 0  9997
2 67975  97.2706  81.7150 0001075  65.9980 249.3249 15.81069058  3615
STARLINK-36880          
1 67976U 26038R   26071.25001157 -.01522207  00000+0 -88324-2 0  9998
2 67976  97.2721  81.7075 0000734 110.5882 186.1018 15.81268041  3613
STARLINK-36904          
1 67977U 26038S   26071.25001157 -.00989157  00000+0 -56853-2 0  9991
2 67977  97.2707  81.7116 0000802  92.2522 216.8061 15.81182257  3610
STARLINK-36364          
1 67978U 26038T   26071.25001157 -.00902474  00000+0 -50748-2 0  9996
2 67978  97.2690  81.7204 0001063  94.7548 235.2724 15.81430462  3610
STARLINK-36359          
1 67979U 26038U   26071.25001157 -.01223679  00000+0 -70638-2 0  9991
2 67979  97.2714  81.7091 0001280  91.0753 210.8057 15.81215711  3617
STARLINK-36882          
1 67980U 26038V   26071.25001157 -.00781029  00000+0 -43649-2 0  9992
2 67980  97.2700  81.7175 0001130  93.1812 229.8758 15.81259044  3615
STARLINK-36874          
1 67981U 26038W   26071.25001157 -.01018739  00000+0 -57665-2 0  9998
2 67981  97.2689  81.7226 0001318 103.2958 231.7790 15.81582142  3617
STARLINK-36879          
1 67982U 26038X   26071.25001157 -.01254417  00000+0 -70612-2 0  9991
2 67982  97.2681  81.7248 0001233  92.3880 248.8978 15.81825598  3614
STARLINK-36867          
1 67983U 26038Y   26071.25001157 -.01591403  00000+0 -88521-2 0  9999
2 67983  97.2673  81.7303 0001049  94.9066 259.0298 15.82301685  3613
STARLINK-36266          
1 67984U 26038Z   26071.25001157 -.01474751  00000+0 -81974-2 0  9991
2 67984  97.2680  81.7282 0001238 103.7706 244.4853 15.82093480  3580
STARLINK-36802          
1 67985U 26038AA  26071.25001157 -.01623669  00000+0 -89931-2 0  9997
2 67985  97.2671  81.7322 0001089  93.7849 265.3413 15.82454003  3616
STARLINK-36535          
1 67986U 26039A   26071.25001157  .00017256  00000+0  84233-4 0  9997
2 67986  42.9990  39.2505 0001465 253.2154 351.4712 15.82037197  3282
STARLINK-36744          
1 67987U 26039B   26071.25001157 -.00009973  00000+0 -44814-4 0  9998
2 67987  42.9992  39.2392 0001818 250.7734 358.1839 15.82046151  3281
STARLINK-36734          
1 67988U 26039C   26071.25001157 -.01890587  00000+0 -14120-1 0  9993
2 67988  42.9992  39.2794 0001171 260.7875 331.7930 15.75075506  3284
STARLINK-36957          
1 67989U 26039D   26071.25001157 -.00022349  00000+0 -10371-3 0  9992
2 67989  42.9993  39.2167 0001503 256.8977   0.6073 15.82049633  3288
STARLINK-36951          
1 67990U 26039E   26071.25001157 -.00021202  00000+0 -98242-4 0  9995
2 67990  42.9994  39.2061 0001466 282.3695 339.4041 15.82050448  3287
STARLINK-36941          
1 67991U 26039F   26071.25001157 -.01889169  00000+0 -14329-1 0  9992
2 67991  42.9990  39.2512 0001062 265.3867 337.8925 15.74725854  3283
STARLINK-36950          
1 67992U 26039G   26071.25001157 -.01916896  00000+0 -11354-1 0  9996
2 67992  42.9993  39.1867 0001081 261.6717   7.3027 15.80231836  3284
STARLINK-36975          
1 67993U 26039H   26071.25001157 -.01944385  00000+0 -10848-1 0  9998
2 67993  42.9994  39.1729 0001560 264.6689   9.8346 15.81549934  3289
STARLINK-36993          
1 67994U 26039J   26071.25001157 -.00034826  00000+0 -16323-3 0  9994
2 67994  42.9993  39.1627 0001606 254.0663  24.8070 15.82053149  3282
STARLINK-36968          
1 67995U 26039K   26071.25001157 -.01899338  00000+0 -12426-1 0  9991
2 67995  42.9992  39.1574 0001384 261.2257  19.4423 15.78037779  3283
STARLINK-36979          
1 67996U 26039L   26071.25001157 -.00003862  00000+0 -15803-4 0  9995
2 67996  42.9993  39.1518 0001779 249.1026  34.0496 15.82033754  3287
STARLINK-36994          
1 67997U 26039M   26071.25001157 -.00037550  00000+0 -17624-3 0  9999
2 67997  42.9992  39.1192 0001722 276.4847  19.4704 15.82054682  3289
STARLINK-36988          
1 67998U 26039N   26071.25001157 -.00052597  00000+0 -24824-3 0  9998
2 67998  42.9993  39.1295 0001692 282.5435   9.1381 15.82060329  3284
STARLINK-36926          
1 67999U 26039P   26071.25001157 -.00029237  00000+0 -13659-3 0  9998
2 67999  42.9990  39.1089 0001369 261.7695  38.4610 15.82045739  3289
STARLINK-36931          
1 68000U 26039Q   26071.25001157 -.00103841  00000+0 -49491-3 0  9999
2 68000  42.9990  39.0981 0001868 298.0796   6.4170 15.82084462  3284
STARLINK-36903          
1 68001U 26039R   26071.25001157 -.00032204  00000+0 -15067-3 0  9996
2 68001  42.9992  39.0864 0002214 288.5505  20.2177 15.82055823  3285
STARLINK-36898          
1 68002U 26039S   26071.25001157 -.00054038  00000+0 -25526-3 0  9997
2 68002  42.9992  39.0648 0001429 273.6748  43.6580 15.82052363  3280
STARLINK-36862          
1 68003U 26039T   26071.25001157 -.00012191  00000+0 -55411-4 0  9999
2 68003  42.9992  39.0432 0001562 277.6030  48.2788 15.82027525  3281
STARLINK-36888          
1 68004U 26039U   26071.25001157 -.00068610  00000+0 -32513-3 0  9994
2 68004  42.9992  39.0760 0001530 297.0477  16.0027 15.82065107  3289
STARLINK-36910          
1 68005U 26039V   26071.25001157  .00031813  00000+0  15299-3 0  9990
2 68005  42.9993  39.0545 0001638 272.7592  48.8357 15.82024895  3287
STARLINK-36889          
1 68006U 26039W   26071.25001157 -.00022353  00000+0 -10384-3 0  9992
2 68006  42.9995  39.0317 0001793 276.0945  54.0629 15.82025331  3285
STARLINK-36592          
1 68007U 26039X   26071.25001157  .00121203  00000+0  56902-3 0  9991
2 68007  42.9994  39.0221 0001696 266.4523  67.9648 15.82056726  3282
STARLINK-36911          
1 68008U 26039Y   26071.25001157 -.00028738  00000+0 -13416-3 0  9996
2 68008  42.9991  39.0114 0001671 268.6327  70.0423 15.82053499  3280
STARLINK-36956          
1 68009U 26039Z   26071.25001157 -.00068577  00000+0 -32501-3 0  9998
2 68009  42.9994  38.9995 0001770 266.1604  76.8087 15.82061277  3283
STARLINK-36953          
1 68010U 26039AA  26071.25001157  .00010207  00000+0  50913-4 0  9993
2 68010  42.9993  38.9776 0001866 267.7234  83.7779 15.82030192  3280
STARLINK-36991          
1 68011U 26039AB  26071.25001157 -.01896099  00000+0 -12557-1 0  9997
2 68011  42.9992  38.9861 0001533 271.5988  76.4807 15.77763783  3289
STARLINK-36936          
1 68012U 26039AC  26071.25001157 -.00054606  00000+0 -25814-3 0  9999
2 68012  42.9993  38.9451 0001312 278.8835  85.4573 15.82040606  3280
STARLINK-36967          
1 68013U 26039AD  26071.25001157 -.01900335  00000+0 -11795-1 0  9991
2 68013  42.9991  38.9962 0001605 276.6286  67.2204 15.79187357  3287
STARLINK-36985          
1 68014U 26039AE  26071.25001157  .00038456  00000+0  18437-3 0  9997
2 68014  42.9993  38.9565 0001708 271.0122  89.0427 15.82012990  3284
STARLINK-36335          
1 68015U 26040A   26071.29190969  .00890969  38519-3  17122-2 0  9998
2 68015  97.2746  19.7003 0003542 330.3555  29.7522 16.00566489  1750
STARLINK-36923          
1 68016U 26040B   26071.29067497  .00130579  91342-5  25518-3 0  9996
2 68016  97.2749  19.7020 0001809 339.4553  20.6653 16.00257949  1758
STARLINK-36568          
1 68017U 26040C   26071.29010790  .00216876  21550-4  42019-3 0  9994
2 68017  97.2747  19.7026 0001560 335.7741  24.3464 16.00375816  1750
STARLINK-36930          
1 68018U 26040D   26071.29128720  .00158716  12448-4  31170-3 0  9998
2 68018  97.2741  19.7012 0001777 333.5914  26.5274 16.00155344  1753
STARLINK-36921          
1 68019U 26040E   26071.28907169 -.00307816  36844-4 -58943-3 0  9992
2 68019  97.2753  19.7048 0000513  81.5585 278.5752 16.00489703  1756
STARLINK-36928          
1 68020U 26040F   26071.28965563  .00058851  36506-5  11418-3 0  9998
2 68020  97.2760  19.7035 0001557  12.5176 347.6141 16.00499512  1750
STARLINK-36858          
1 68021U 26040G   26071.15917757  .01290387  10476-2  15906-2 0  9990
2 68021  97.2742  19.5747 0002157 188.6392 171.4854 16.08172425  1732
STARLINK-36916          
1 68022U 26040H   26071.28791975  .00544393  13428-3  10136-2 0  9996
2 68022  97.2769  19.7067 0002399 348.5819  11.5406 16.01065364  1753
STARLINK-36871          
1 68023U 26040J   26071.28733114  .00663584  20472-3  12252-2 0  9990
2 68023  97.2755  19.7062 0002957 347.9818  12.1390 16.01223653  1752
